GPS BIIA-23 (PRN 18)    
1 22877U 93068A   18358.53604722 -.00000038  00000-0  00000+0 0  9997
2 22877  54.5595  75.6996 0147419  78.1977 246.2158  2.00570811184362
GPS BIIR-2  (PRN 13)    
1 24876U 97035A   18358.48351598  .00000081  00000-0  00000+0 0  9997
2 24876  55.4696 205.3072 0034828  79.2770 281.1861  2.00564235156961
GPS BIIR-3  (PRN 11)    
1 25933U 99055A   18358.23690856 -.00000056  00000-0  00000+0 0  9995
2 25933  52.0154  53.4219 0164549 106.3115   3.2992  2.00562625140773
GPS BIIR-4  (PRN 20)    
1 26360U 00025A   18358.64092809  .00000028  00000-0  00000+0 0  9996
2 26360  53.2671 131.7207 0042996 128.6404 318.8193  2.00563074136470
GPS BIIR-5  (PRN 28)    
1 26407U 00040A   18358.35065966 -.00000045  00000-0  00000+0 0  9997
2 26407  56.3730 323.4494 0197768 274.7368 299.1213  2.00561179135141
GPS BIIR-6  (PRN 14)    
1 26605U 00071A   18358.54362216  .00000080  00000-0  00000+0 0  9998
2 26605  55.0436 202.8215 0102150 248.8617  14.2921  2.00565295132750
GPS BIIR-8  (PRN 16)    
1 27663U 03005A   18358.21074517 -.00000045  00000-0  00000+0 0  9993
2 27663  56.4352 323.2218 0102167  28.7902 202.9409  2.00555153116502
GPS BIIR-9  (PRN 21)    
1 27704U 03010A   18358.40131769 -.00000039  00000-0  00000+0 0  9992
2 27704  54.2325  75.2308 0248685 274.0233  61.4121  2.00575984115318
GPS BIIR-10 (PRN 22)    
1 28129U 03058A   18358.18002257  .00000030  00000-0  00000+0 0  9990
2 28129  53.0794 134.5583 0072500 276.9406  82.1983  2.00568643110006
GPS BIIR-11 (PRN 19)    
1 28190U 04009A   18358.30552569 -.00000056  00000-0  00000+0 0  9994
2 28190  56.2316  24.0167 0091478  75.5976  15.2304  2.00570912108182
GPS BIIR-12 (PRN 23)    
1 28361U 04023A   18358.21312755  .00000083  00000-0  00000+0 0  9990
2 28361  54.0516 197.3817 0128129 228.1451  68.8997  2.00563225106262
GPS BIIR-13 (PRN 02)    
1 28474U 04045A   18358.19880797 -.00000038  00000-0  00000+0 0  9993
2 28474  54.5952  74.9257 0188600 257.0733  33.4251  2.00569833103638
GPS BIIRM-1 (PRN 17)    
1 28874U 05038A   18357.32633958 -.00000051  00000-0  00000+0 0  9994
2 28874  56.3634  21.3878 0131990 260.2039 228.8092  2.00565131 97013
GPS BIIRM-2 (PRN 31)    
1 29486U 06042A   18358.61557569  .00000020  00000-0  00000+0 0  9991
2 29486  55.0797 260.0384 0091451 355.7035 260.2318  2.00548208 89755
GPS BIIRM-3 (PRN 12)    
1 29601U 06052A   18358.20065744 -.00000044  00000-0  00000+0 0  9992
2 29601  56.4131 322.1388 0070079  57.4680 303.2002  2.00557743 88661
GPS BIIRM-4 (PRN 15)    
1 32260U 07047A   18358.01812566  .00000083  00000-0  00000+0 0  9995
2 32260  53.1755 193.2391 0109948  42.0366 318.8540  2.00569985 82037
GPS BIIRM-5 (PRN 29)    
1 32384U 07062A   18358.55725703 -.00000057  00000-0  00000+0 0  9996
2 32384  56.4431  21.9641 0003806  90.4569  76.0023  2.00574267 80782
GPS BIIRM-6 (PRN 07)    
1 32711U 08012A   18357.92568462  .00000025  00000-0  00000+0 0  9997
2 32711  54.8168 259.2976 0122581 218.7866 140.4019  2.00569113 78950
GPS BIIRM-8 (PRN 05)    
1 35752U 09043A   18358.45803465  .00000036  00000-0  00000+0 0  9996
2 35752  54.3727 136.9904 0054318  39.7416  10.4568  2.00572022 68553
GPS BIIF-1  (PRN 25)    
1 36585U 10022A   18358.49011236 -.00000043  00000-0  00000+0 0  9990
2 36585  55.6972 318.5525 0077204  47.2634 135.5640  2.00551294 62794
GPS BIIF-2  (PRN 01)    
1 37753U 11036A   18358.53799007 -.00000033  00000-0  00000+0 0  9997
2 37753  55.7929  78.6661 0080750  38.4388 260.7631  2.00565035 54484
GPS BIIF-3  (PRN 24)    
1 38833U 12053A   18358.10587202  .00000028  00000-0  00000+0 0  9995
2 38833  53.8493 255.6620 0078108  31.2570 329.2840  2.00555732 45542
GPS BIIF-4  (PRN 27)    
1 39166U 13023A   18358.46967552 -.00000058  00000-0  00000+0 0  9996
2 39166  56.0535  18.1767 0062466  22.3487 337.9729  2.00560505 41087
GPS BIIF-5  (PRN 30)    
1 39533U 14008A   18357.96847938  .00000021  00000-0  00000+0 0  9996
2 39533  53.9870 261.0426 0036111 191.5537 168.4343  2.00566158 35449
GPS BIIF-6  (PRN 06)    
1 39741U 14026A   18358.24997968 -.00000034  00000-0  00000+0 0  9993
2 39741  55.7743  78.2021 0014747 287.0826  72.7912  2.00553162 33720
GPS BIIF-7  (PRN 09)    
1 40105U 14045A   18358.33690299  .00000083  00000-0  00000+0 0  9990
2 40105  54.5780 197.5847 0012347  97.6134 262.5849  2.00552474 32177
GPS BIIF-8  (PRN 03)    
1 40294U 14068A   18358.21038854  .00000039  00000-0  00000+0 0  9995
2 40294  55.1245 138.4166 0017391  34.2641 325.8112  2.00570195 30399
GPS BIIF-9  (PRN 26)    
1 40534U 15013A   18358.35074408 -.00000044  00000-0  00000+0 0  9990
2 40534  54.6310 317.0829 0034120   0.1013 359.8940  2.00552070 27460
GPS BIIF-10  (PRN 08)   
1 40730U 15033A   18357.50781922 -.00000054  00000-0  00000+0 0  9993
2 40730  55.5808  17.6344 0041014 334.0155  25.8314  2.00564018 25201
GPS BIIF-11  (PRN 10)   
1 41019U 15062A   18358.05906987  .00000039  00000-0  00000+0 0  9999
2 41019  55.1274 138.2322 0042224 202.3989 157.3810  2.00564448 23035
GPS BIIF-12  (PRN 32)   
1 41328U 16007A   18357.65254569  .00000091  00000-0  00000+0 0  9997
2 41328  54.8248 197.9543 0025110 213.8018 146.1017  2.00555860 21083
